81P/Wild,e,3.2390,136.1258,41.6966,3.449091,0.1538676,0.53838120,3.7993,08/14.0/2016,2000,g  7.0,6.0
# From MPC 75717
82P/Gehrels,e,1.1274,239.3176,227.1344,4.144486,0.1168148,0.12320623,280.2054,08/14.0/2016,2000,g  5.0,8.0
# From MPC 69911
84P/Giclas,e,7.2708,111.9608,276.2922,3.621478,0.1430129,0.50015246,159.5201,08/14.0/2016,2000,g  9.5,8.0
# From MPC 79347
86P/Wild,e,15.4715,72.3962,179.1713,3.605320,0.1439754,0.37221332,71.7742,08/14.0/2016,2000,g 11.0,6.0
# From MPC 87068
87P/Bus,e,2.6020,181.8805,24.7704,3.440870,0.1544193,0.38941443,149.4708,08/14.0/2016,2000,g  7.2,10.0
# From MPC 95735
88P/Howell,e,4.3833,56.6958,235.8840,3.108245,0.1798586,0.56313682,89.1686,08/14.0/2016,2000,g 11.0,6.0
# From MPC 10028
89P/Russell,e,12.0766,41.4452,250.1462,3.750932,0.1356736,0.40800843,343.3554,08/14.0/2016,2000,g 11.5,6.0
# From NK 2719
90P/Gehrels,e,9.6355,13.2517,29.2845,6.068613,0.0659280,0.50982700,339.6081,08/14.0/2016,2000,g  8.5,6.0
# From MPC 84320
91P/Russell,e,14.0833,247.8294,354.5433,3.896675,0.1281335,0.32985911,161.6325,08/14.0/2016,2000,g  7.5,6.0
# From MPC 88331
92P/Sanguin,e,19.4443,181.4589,163.7735,5.355820,0.0795179,0.65919525,42.2939,08/14.0/2016,2000,g 12.0,6.0
# From NK 2707
93P/Lovas,e,12.2050,339.6281,74.9020,4.389635,0.1071671,0.61270525,338.6247,08/14.0/2016,2000,g  9.5,6.0
# From MPC 84320
94P/Russell,e,6.1856,70.8856,92.7784,3.510214,0.1498662,0.36471916,348.8055,08/14.0/2016,2000,g  9.0,6.0
# From MPC 75717
95P/Chiron,e,6.9473,209.2150,339.5429,13.63973,0.0195657,0.38271955,146.2430,08/14.0/2016,2000,g  6.3,2.0
# From NK 2733
96P/Machholz,e,58.1660,94.2717,14.7891,3.034469,0.1864576,0.95917662,277.9646,08/14.0/2016,2000,g 13.0,4.8
# From MPC 77020
97P/Metcalf-Brewington,e,17.8633,185.1829,228.2570,4.799866,0.0937261,0.45695571,170.8750,08/14.0/2016,2000,g  5.5,6.0
# From MPC 83523
98P/Takamizawa,e,10.5474,114.7215,157.8049,3.804490,0.1328188,0.56101602,146.6989,08/14.0/2016,2000,g  9.0,8.0
# From MPC 75718
99P/Kowal,e,4.3392,28.1830,174.3452,6.128614,0.0649622,0.23077215,226.0155,08/14.0/2016,2000,g  4.5,6.0
# From MPC 84321
100P/Hartley,e,25.5894,37.7249,181.8669,3.427597,0.1553172,0.41341050,20.8071,08/14.0/2016,2000,g  9.0,8.0
# From MPC 75718
101P/Chernykh,e,5.0494,116.2465,277.6773,5.791300,0.0707196,0.59499705,271.8166,08/14.0/2016,2000,g 10.0,4.8
# From MPC 86232
102P/Shoemaker,e,26.1314,339.7452,20.6233,3.795333,0.1332997,0.46260909,144.1920,08/14.0/2016,2000,g  6.5,8.0
# From NK 2714
103P/Hartley,e,13.5938,219.7269,181.3078,3.476983,0.1520198,0.69344211,322.0701,08/14.0/2016,2000,g  8.5,8.0
# From MPC 10028
104P/Kowal,e,10.2561,235.4429,200.6710,3.262357,0.1672657,0.63853647,23.2225,08/14.0/2016,2000,g 16.0,4.0
# From MPC 94676
105P/Singer Brewster,e,9.1766,192.4322,46.5185,3.466248,0.1527266,0.40995460,249.0251,08/14.0/2016,2000,g 11.5,6.0
# From MPC 92276
106P/Schuster,e,20.2348,50.2481,355.9785,3.750687,0.1356868,0.59010986,102.4859,08/14.0/2016,2000,g 14.0,4.8
# From MPC 94676
107P/Wilson-Harrington,e,2.7744,267.8730,94.0865,2.634899,0.2304401,0.62943150,210.8314,08/14.0/2016,2000,g 16.0,2.0
# From MPC 89313
108P/Ciffreo,e,13.1606,53.2790,358.2641,3.739038,0.1363215,0.54564990,90.5995,08/14.0/2016,2000,g  8.0,12.0
# From ICA 105, 420
109P/Swift-Tuttle,e,113.0757,139.7717,153.0778,26.11162,0.0073868,0.96376827,63.9078,08/14.0/2016,2000,g  4.5,6.0
# From MPC 91618
110P/Hartley,e,11.6838,287.5964,167.5579,3.609208,0.1437428,0.31543664,87.1060,08/14.0/2016,2000,g  1.0,12.0
# From MPC 75718
111P/Helin-Roman-Crockett,e,4.2284,89.7679,1.8960,4.139252,0.1170365,0.10546356,152.4740,08/14.0/2016,2000,g  5.0,8.0
# From MPC 69910
112P/Urata-Niijima,e,24.2046,31.9097,21.3704,3.529927,0.1486125,0.58785018,170.5214,08/14.0/2016,2000,g 14.0,6.0
# From MPC 92984
113P/Spitaler,e,5.7786,14.3649,50.1978,3.690778,0.1390039,0.42592111,66.3711,08/14.0/2016,2000,g 13.5,4.0
# From MPC 82722
114P/Wiseman-Skiff,e,18.2784,271.0636,172.8714,3.544131,0.1477200,0.55463698,175.5939,08/14.0/2016,2000,g 11.5,6.0
# From MPC 76027
115P/Maury,e,11.6716,176.0473,121.0638,4.271728,0.1116346,0.51774810,198.4266,08/14.0/2016,2000,g 10.5,6.0
# From MPC 98565
116P/Wild,e,3.6086,20.9886,173.3126,3.483889,0.1515680,0.37221659,32.6603,08/14.0/2016,2000,g  2.5,10.0
# From MPC 95735
117P/Helin-Roman-Alu,e,8.6996,58.8741,222.5406,4.094067,0.1189794,0.25416878,103.6718,08/14.0/2016,2000,g  2.5,8.0
# From MPC 95735
118P/Shoemaker-Levy,e,8.5143,151.7267,302.3376,3.462235,0.1529922,0.42809698,8.8787,08/14.0/2016,2000,g 12.0,4.0
# From MPC 84628
119P/Parker-Hartley,e,5.2425,242.1775,182.3869,4.278057,0.1113869,0.30092402,96.1325,08/14.0/2016,2000,g  3.5,8.0
# From MPC 80901
120P/Mueller,e,8.8879,3.8745,28.8978,4.091801,0.1190782,0.34999791,150.8173,08/14.0/2016,2000,g 12.0,4.0
# From MPC 10028
121P/Shoemaker-Holt,e,20.1550,94.1475,11.5699,4.593703,0.1001059,0.18327972,107.9531,08/14.0/2016,2000,g  6.5,8.0
# From MPC 75718
122P/de Vico,e,85.0479,79.5638,13.0460,17.66425,0.0132758,0.96262134,101.0452,08/14.0/2016,2000,g  7.5,5.2
# From MPC 79345
123P/West-Hartley,e,15.3575,46.5078,102.9637,3.860245,0.1299516,0.44918986,242.4295,08/14.0/2016,2000,g  4.0,10.0
# From MPC 87068
124P/Mrkos,e,31.5327,0.4021,183.7830,3.318501,0.1630389,0.50399668,139.7501,08/14.0/2016,2000,g 13.5,2.8
# From MPC 94676
125P/Spacewatch,e,9.9882,153.1916,87.1501,3.124865,0.1784256,0.51309429,227.2286,08/14.0/2016,2000,g 13.0,6.0
# From MPC 66205
126P/IRAS,e,45.7817,357.8187,356.6130,5.641599,0.0735531,0.69513831,174.4226,08/14.0/2016,2000,g  6.0,8.0
# From MPC 84321
127P/Holt-Olmstead,e,14.3027,13.6497,6.6922,3.449627,0.1538317,0.36054985,22.9569,08/14.0/2016,2000,g 11.0,6.0
# From MPC 75719
128P-B/Shoemaker-Holt,e,4.3644,214.2919,210.5807,4.502506,0.1031627,0.32130120,344.5475,08/14.0/2016,2000,g  8.5,4.0
# From MPC 10028
129P/Shoemaker-Levy,e,3.4443,184.8976,308.9120,4.276454,0.1114496,0.08477256,102.5183,08/14.0/2016,2000,g 11.0,4.0
# From MPC 78188
130P/McNaught-Hughes,e,6.0537,70.4168,245.5182,3.390932,0.1578431,0.46171054,277.1398,08/14.0/2016,2000,g 10.0,6.0
# From MPC 76027
131P/Mueller,e,7.3543,214.1961,179.1314,3.679003,0.1396719,0.34278529,235.1788,08/14.0/2016,2000,g 11.0,4.0
# From MPC 92985
132P/Helin-Roman-Alu,e,6.0313,178.2329,220.1653,4.054304,0.1207340,0.54861114,97.1947,08/14.0/2016,2000,g 11.0,6.0
# From MPC 94676
133P/Elst-Pizarro,e,1.3878,160.1269,131.8617,3.161829,0.1753059,0.16003367,225.3696,08/14.0/2016,2000,g 15.4,2.0
# From MPC 89012
134P/Kowal-Vavrova,e,4.3496,202.0876,18.6628,6.242232,0.0631967,0.58802561,51.5181,08/14.0/2016,2000,g 11.5,4.0
# From MPC 92985
135P/Shoemaker-Levy,e,6.0623,213.0817,22.0207,3.804290,0.1328292,0.29561346,86.4850,08/14.0/2016,2000,g  7.0,8.0
# From MPC 84321
136P/Mueller,e,9.4156,137.4507,225.1597,4.203118,0.1143791,0.29121144,8.5608,08/14.0/2016,2000,g 11.0,4.0
# From MPC 75719
137P/Shoemaker-Levy,e,4.8508,233.0731,140.9615,4.518967,0.1025995,0.57215698,272.6101,08/14.0/2016,2000,g 11.0,4.0
# From MPC 65938
138P/Shoemaker-Levy,e,10.0847,309.3656,95.5896,3.622575,0.1429480,0.52953746,218.1591,08/14.0/2016,2000,g 15.0,6.0
# From MPC 89012
139P/Vaisala-Oterma,e,2.3324,242.2276,166.1322,4.529733,0.1022340,0.24637229,310.4810,08/14.0/2016,2000,g  9.5,4.0
# From MPC 92985
140P/Bowell-Skiff,e,3.8211,343.3909,172.9271,6.446545,0.0602162,0.69164805,22.3664,08/14.0/2016,2000,g 11.5,6.0
# From MPC 94284
141P/Machholz,e,12.8224,245.8483,149.6760,3.024546,0.1873759,0.74848404,66.4872,08/14.0/2016,2000,g 12.0,12.0
# From MPC 71683
142P/Ge-Wang,e,12.3649,176.4720,175.0148,4.948429,0.0895371,0.50046799,204.0490,08/14.0/2016,2000,g  8.5,6.0
# From MPC 94676
143P/Kowal-Mrkos,e,4.6951,245.3080,320.8536,4.293752,0.1107768,0.41002305,290.0566,08/14.0/2016,2000,g 13.5,2.0
# From MPC 84321
144P/Kushida,e,4.1150,245.4898,216.1504,3.856772,0.1301272,0.62885256,357.7915,08/14.0/2016,2000,g  8.5,8.0
# From MPC 75720
145P/Shoemaker-Levy,e,11.2598,26.8124,10.3929,4.144927,0.1167962,0.54069940,315.2713,08/14.0/2016,2000,g 13.5,4.0
# From MPC 10028
146P/Shoemaker-LINEAR,e,23.0728,53.4540,316.9771,4.040042,0.1213739,0.64602186,5.4464,08/14.0/2016,2000,g 15.0,4.0
# From MPC 75720
147P/Kushida-Muramatsu,e,2.3689,93.7305,347.0865,3.799974,0.1330556,0.27719049,22.3646,08/14.0/2016,2000,g 14.0,4.0
# From MPC 89730
148P/Anderson-LINEAR,e,3.6825,89.7399,6.6499,3.672888,0.1400208,0.53980055,59.8285,08/14.0/2016,2000,g 16.0,2.0
# From MPC 75720
149P/Mueller,e,29.7645,145.2576,43.6381,4.320410,0.1097531,0.38986983,259.4016,08/14.0/2016,2000,g  8.0,8.0
# From MPC 75720
150P/LONEOS,e,18.5061,272.4259,245.6784,3.884247,0.1287490,0.54696454,2.5831,08/14.0/2016,2000,g 13.5,4.0
# From MPC 95214
151P/Helin,e,4.7196,143.1535,216.2439,5.778424,0.0709561,0.57193787,22.0677,08/14.0/2016,2000,g 10.0,6.0
# From MPC 79346
152P/Helin-Lawrence,e,9.8719,91.8757,163.5272,4.490074,0.1035914,0.30795710,155.0733,08/14.0/2016,2000,g 11.5,4.0
# From MPC 46101
153P/Ikeya-Zhang,e,28.0168,93.3263,34.7613,51.25353,0.0026861,0.99010848,0.0000,03/22.6442/2002,2000,g  7.0,4.0
# From MPC 87068
154P/Brewington,e,17.8107,343.3148,47.9055,4.817182,0.0932212,0.67619551,90.8914,08/14.0/2016,2000,g  2.5,12.0
# From MPC 75720
155P/Shoemaker,e,6.3991,97.2485,14.7162,6.583684,0.0583446,0.72702808,290.6997,08/14.0/2016,2000,g 10.0,4.8
# From MPC 92985
156P/Russell-LINEAR,e,20.9252,38.6190,357.8773,3.587126,0.1450722,0.56188981,123.2022,08/14.0/2016,2000,g 15.5,2.0
# From MPC 95214
157P/Tritton,e,7.2849,299.9994,148.8903,3.408388,0.1566320,0.60154692,10.1257,08/14.0/2016,2000,g 10.0,4.0
# From MPC 10028
158P/Kowal-LINEAR,e,7.9024,137.2732,241.7494,4.743943,0.0953883,0.02935798,127.1173,08/14.0/2016,2000,g  9.0,4.0
# From MPC 75721
159P/LONEOS,e,23.4599,55.0347,4.8417,5.861454,0.0694538,0.38175192,315.0462,08/14.0/2016,2000,g 10.0,4.0
# From MPC 80901
160P/LINEAR,e,16.1027,334.6484,12.1105,3.747775,0.1358451,0.53455893,196.7962,08/14.0/2016,2000,g 15.5,2.0
# From MPC 75721
